GLOBALSTAR M035 [-]     
1 25851U 99037A   24017.56018286 -.00000029  00000+0  13018-2 0  9995
2 25851  51.9947 127.0759 0013534 219.7452 229.4767 11.04528121 39177
GLOBALSTAR M032 [-]     
1 25852U 99037B   24017.23590359 -.00000007  00000+0  19032-2 0  9994
2 25852  51.9989 348.6702 0009422  15.8379 344.2714 11.19049776 76918
GLOBALSTAR M051 [-]     
1 25853U 99037C   24017.81531544 -.00000059  00000+0  31514-3 0  9997
2 25853  51.9754 206.5628 0002148  42.3005 317.7971 11.42195881 73380
GLOBALSTAR M030 [-]     
1 25854U 99037D   24017.38210126 -.00000089  00000+0 -30761-3 0  9997
2 25854  51.9895  46.5720 0004379 196.3933 163.6742 11.55086824 90327
GLOBALSTAR M048 [-]     
1 25872U 99041A   24017.61043510 -.00000049  00000+0  56247-3 0  9991
2 25872  51.9365 122.1127 0012808  14.8182  88.5003 11.33842569 66383
GLOBALSTAR M026 [-]     
1 25873U 99041B   24017.94100784 -.00000048  00000+0  61162-3 0  9996
2 25873  51.9985 249.6322 0002108  98.0161   1.1752 11.06835297 91321
GLOBALSTAR M043 [-]     
1 25874U 99041C   24017.83007809 -.00000053  00000+0  43990-3 0  9994
2 25874  51.9357 208.6573 0013457 148.2098 311.4025 11.25674237 64724
GLOBALSTAR M028 [-]     
1 25875U 99041D   24017.91590121 -.00000064  00000+0  23737-3 0  9997
2 25875  51.9635 292.4515 0064186  30.5793 329.8786 12.50548308125588
